     2.100          NAVIGATION                              RINEX VERSION / TYPE
fic2rin                                 03/14/2010 00:14:43 PGM / RUN BY / DATE
                                                            END OF HEADER
 2 10  3 13  2  0  0.0  .235704239458D-03  .386535248253D-11  .000000000000D+00
     .107000000000D+03  .447187500000D+02  .509092634323D-08 -.115506477027D+01
     .228546559811D-05  .942300562747D-02  .707618892193D-05  .515378368759D+04
     .525600000000D+06 -.614672899246D-07  .730012251689D+00 -.232830643654D-06
     .940325646966D+00  .234312500000D+03  .298674499122D+01 -.831427489435D-08
     .584667210879D-09  .100000000000D+01  .157400000000D+04  .000000000000D+00
     .240000000000D+01  .000000000000D+00 -.172294676304D-07  .107000000000D+03
     .518406000000D+06  .400000000000D+01
 3 10  3 13  2  0  0.0  .527363270521D-03  .511590769747D-11  .000000000000D+00
     .100000000000D+02 -.558125000000D+02  .502235205827D-08 -.127895478199D+01
    -.287592411041D-05  .128834561910D-01  .104829668999D-04  .515370337486D+04
     .525600000000D+06  .298023223877D-06 -.420895636861D+00  .219792127609D-06
     .927344494592D+00  .157500000000D+03  .983654500930D+00 -.825570102594D-08
    -.191079387795D-09  .100000000000D+01  .157400000000D+04  .000000000000D+00
     .240000000000D+01  .000000000000D+00 -.419095158577D-08  .100000000000D+02
     .518406000000D+06  .400000000000D+01
 4 10  3 13  2  0  0.0  .353371724486D-04  .886757334229D-11  .000000000000D+00
     .270000000000D+02  .512812500000D+02  .520664544911D-08  .187028791350D+01
     .262632966042D-05  .910021597520D-02  .714696943760D-05  .515364704132D+04
     .525600000000D+06 -.143423676491D-06  .747974006680D+00  .186264514923D-08
     .939460080763D+00  .233593750000D+03  .599987209201D+00 -.842463663422D-08
     .409302763389D-09  .100000000000D+01  .157400000000D+04  .000000000000D+00
     .240000000000D+01  .000000000000D+00 -.605359673500D-08  .270000000000D+02
     .518406000000D+06  .400000000000D+01
 5 10  3 13  2  0  0.0 -.396138057113D-05  .136424205266D-11  .000000000000D+00
     .160000000000D+02 -.335625000000D+02  .485663086960D-08  .315502955907D+00
    -.167824327946D-05  .190685305279D-02  .549107789993D-05  .515365939140D+04
     .525600000000D+06  .465661287308D-07  .178962096629D+01  .149011611938D-07
     .958869069888D+00  .271718750000D+03  .349030241185D+00 -.828891669522D-08
    -.285011871888D-09  .100000000000D+01  .157400000000D+04  .000000000000D+00
     .240000000000D+01  .000000000000D+00 -.884756445885D-08  .160000000000D+02
     .518406000000D+06  .400000000000D+01
 6 10  3 13  2  0  0.0  .689778011292D-03 -.716227077646D-11  .000000000000D+00
     .770000000000D+02 -.590000000000D+02  .482055793844D-08  .975149981745D+00
    -.329129397869D-05  .609278725460D-02  .108145177364D-04  .515367403030D+04
     .525600000000D+06  .428408384323D-07 -.350930761949D+00 -.132247805595D-06
     .934756205194D+00  .158781250000D+03 -.112784341971D+01 -.822319967213D-08
    -.141434462742D-09  .100000000000D+01  .157400000000D+04  .000000000000D+00
     .240000000000D+01  .000000000000D+00 -.465661287308D-08  .770000000000D+02
     .518406000000D+06  .400000000000D+01
 7 10  3 13  2  0  0.0  .173505395651D-05 -.454747350886D-12  .000000000000D+00
     .910000000000D+02  .827812500000D+02  .451268797157D-08 -.280731934106D+01
     .432506203651D-05  .327611912508D-02  .534765422344D-05  .515372114182D+04
     .525600000000D+06 -.167638063431D-07 -.239396831652D+01 -.279396772385D-07
     .970870822015D+00  .284437500000D+03  .306242977196D+01 -.813819613139D-08
     .347514475373D-09  .100000000000D+01  .157400000000D+04  .000000000000D+00
     .240000000000D+01  .000000000000D+00 -.107102096081D-07  .910000000000D+02
     .518406000000D+06  .400000000000D+01
 8 10  3 13  2  0  0.0  .405870378017D-05  .341060513165D-12  .000000000000D+00
     .100000000000D+03  .780000000000D+02  .406802659249D-08  .286652697264D+01
     .404752790928D-05  .109559368575D-01  .515207648277D-05  .515370868492D+04
     .525600000000D+06 -.184401869774D-06 -.232763784506D+01 -.186264514923D-08
     .992152021514D+00  .299812500000D+03  .309091633600D+01 -.785282710177D-08
     .351800368183D-09  .100000000000D+01  .157400000000D+04  .000000000000D+00
     .485000000000D+01  .000000000000D+00 -.419095158577D-08  .100000000000D+03
     .518406000000D+06  .400000000000D+01
 9 10  3 13  2  0  0.0  .111161731184D-03  .216004991671D-11  .000000000000D+00
     .340000000000D+02  .936562500000D+02  .417124517768D-08  .274968133718D+01
     .469386577606D-05  .207455554046D-01  .595860183239D-05  .515360211182D+04
     .525600000000D+06  .251457095146D-06 -.242590369823D+01 -.214204192162D-06
     .979691174973D+00  .267562500000D+03  .153328266875D+01 -.772782189480D-08
     .287869133762D-09  .100000000000D+01  .157400000000D+04  .000000000000D+00
     .240000000000D+01  .000000000000D+00 -.558793544769D-08  .340000000000D+02
     .518406000000D+06  .400000000000D+01
10 10  3 13  2  0  0.0 -.377180986106D-04 -.102318153949D-11  .000000000000D+00
     .760000000000D+02 -.318125000000D+02  .499770817461D-08  .339852136000D+00
    -.159442424774D-05  .917489593849D-02  .559166073799D-05  .515346192360D+04
     .525600000000D+06  .167638063431D-07  .181582520258D+01  .156462192535D-06
     .953915439093D+00  .268125000000D+03  .659003726630D+00 -.844928051788D-08
    -.347157317639D-09  .100000000000D+01  .157400000000D+04  .000000000000D+00
     .485000000000D+01  .000000000000D+00 -.279396772385D-08  .760000000000D+02
     .518406000000D+06  .400000000000D+01
11 10  3 13  2  0  0.0 -.502401962876D-04 -.216004991671D-11  .000000000000D+00
     .560000000000D+02  .583750000000D+02  .604846622861D-08 -.290478260225D+01
     .294297933578D-05  .105083637172D-01  .805035233498D-05  .515373052979D+04
     .525600000000D+06  .335276126862D-07  .515266896352D+00 -.745058059692D-07
     .888941255080D+00  .185750000000D+03  .796810794025D+00 -.863535969739D-08
     .520735976458D-09  .100000000000D+01  .157400000000D+04  .000000000000D+00
     .240000000000D+01  .000000000000D+00 -.116415321827D-07  .560000000000D+02
     .518406000000D+06  .400000000000D+01
12 10  3 13  2  0  0.0 -.139471609145D-03  .466116034659D-11  .000000000000D+00
     .550000000000D+02 -.655312500000D+02  .454376069444D-08 -.273180585632D+01
    -.342540442944D-05  .347803544719D-02  .368058681488D-05  .515373384094D+04
     .525600000000D+06 -.167638063431D-07 -.134013618411D+01  .651925802231D-07
     .969635633468D+00  .311812500000D+03 -.529831806764D+00 -.823712882376D-08
    -.321084803042D-09  .100000000000D+01  .157400000000D+04  .000000000000D+00
     .240000000000D+01  .000000000000D+00 -.121071934700D-07  .550000000000D+02
     .518406000000D+06  .400000000000D+01
13 10  3 13  2  0  0.0  .306081958115D-03 -.227373675443D-12  .000000000000D+00
     .220000000000D+02  .332812500000D+02  .363157984131D-08 -.295500515045D+00
     .154972076416D-05  .424700859003D-02  .116787850857D-04  .515357870865D+04
     .525600000000D+06 -.391155481339D-07  .290682570048D+01  .186264514923D-07
     .993653234400D+00  .175125000000D+03  .164351868672D+01 -.756888670308D-08
    -.771460705864D-10  .100000000000D+01  .157400000000D+04  .000000000000D+00
     .240000000000D+01  .000000000000D+00 -.111758708954D-07  .220000000000D+02
     .518406000000D+06  .400000000000D+01
14 10  3 13  2  0  0.0  .213156454265D-04  .409272615798D-11  .000000000000D+00
     .770000000000D+02  .170312500000D+02  .381230165481D-08 -.480028732769D+00
     .936910510063D-06  .495027448051D-02  .117309391499D-04  .515372252846D+04
     .525600000000D+06 -.484287738800D-07  .288552036576D+01  .633299350739D-07
     .986949546890D+00  .169875000000D+03 -.210478428967D+01 -.766246202944D-08
    -.127148153374D-09  .100000000000D+01  .157400000000D+04  .000000000000D+00
     .240000000000D+01  .000000000000D+00 -.884756445885D-08  .770000000000D+02
     .518406000000D+06  .400000000000D+01
15 10  3 13  2  0  0.0 -.298764556646D-03  .386535248253D-11  .000000000000D+00
     .140000000000D+02  .125625000000D+02  .446518599292D-08 -.497393729828D+00
     .601634383202D-06  .243918725755D-02  .117365270853D-04  .515373899651D+04
     .525600000000D+06  .186264514923D-07  .282392108694D+01 -.465661287308D-07
     .954585331225D+00  .147750000000D+03 -.237884610015D+00 -.797283210046D-08
    -.165364030933D-09  .100000000000D+01  .157400000000D+04  .000000000000D+00
     .240000000000D+01  .000000000000D+00 -.977888703346D-08  .140000000000D+02
     .518406000000D+06  .400000000000D+01
16 10  3 13  2  0  0.0 -.504855997860D-04 -.397903932026D-11  .000000000000D+00
     .930000000000D+02 -.646875000000D+02  .453126017375D-08  .121660093880D+01
    -.323913991451D-05  .575881521218D-02  .373274087906D-05  .515372717857D+04
     .525600000000D+06  .577419996262D-07 -.132279748154D+01  .242143869400D-07
     .970908711594D+00  .307687500000D+03 -.267708585469D+00 -.827213028172D-08
    -.391444876679D-09  .100000000000D+01  .157400000000D+04  .000000000000D+00
     .240000000000D+01  .000000000000D+00 -.977888703346D-08  .930000000000D+02
     .518406000000D+06  .400000000000D+01
17 10  3 13  2  0  0.0  .136532355100D-03  .295585778076D-11  .000000000000D+00
     .370000000000D+02 -.445625000000D+02  .431660837549D-08 -.457795006828D-01
    -.232644379139D-05  .525853165891D-02  .117029994726D-04  .515358145142D+04
     .525600000000D+06  .633299350739D-07 -.279665213887D+00  .894069671631D-07
     .960534729396D+00  .154468750000D+03 -.255367692943D+01 -.797211778499D-08
    -.196436753808D-10  .100000000000D+01  .157400000000D+04  .000000000000D+00
     .240000000000D+01  .000000000000D+00 -.102445483208D-07  .370000000000D+02
     .518406000000D+06  .400000000000D+01
